CCSDS_OMM_VERS = 2.0
CREATION_DATE  = 
ORIGINATOR     = 

OBJECT_NAME    = SL-14 R/B
OBJECT_ID      = 1986-046B
CENTER_NAME    = EARTH
REF_FRAME      = TEME
TIME_SYSTEM    = UTC
MEAN_ELEMENT_THEORY = SGP/SGP4

EPOCH          = 2026-03-12T12:02:11.925888
MEAN_MOTION    = 14.85593566
ECCENTRICITY   = .00221603
INCLINATION    = 82.4783
RA_OF_ASC_NODE = 77.5240
ARG_OF_PERICENTER = 215.6350
MEAN_ANOMALY   = 144.3388

EPHEMERIS_TYPE = 0
CLASSIFICATION_TYPE = U
NORAD_CAT_ID   = 16792
ELEMENT_SET_NO = 999
REV_AT_EPOCH   = 12682
BSTAR          = .65605554E-4
MEAN_MOTION_DOT = .594E-5
MEAN_MOTION_DDOT = 0

CCSDS_OMM_VERS = 2.0
CREATION_DATE  = 
ORIGINATOR     = 

OBJECT_NAME    = SL-14 R/B
OBJECT_ID      = 1986-055B
CENTER_NAME    = EARTH
REF_FRAME      = TEME
TIME_SYSTEM    = UTC
MEAN_ELEMENT_THEORY = SGP/SGP4

EPOCH          = 2026-03-12T13:59:40.762752
MEAN_MOTION    = 14.85645592
ECCENTRICITY   = .00179441
INCLINATION    = 82.5196
RA_OF_ASC_NODE = 123.9545
ARG_OF_PERICENTER = 326.6102
MEAN_ANOMALY   = 194.9724

EPHEMERIS_TYPE = 0
CLASSIFICATION_TYPE = U
NORAD_CAT_ID   = 16882
ELEMENT_SET_NO = 999
REV_AT_EPOCH   = 11979
BSTAR          = .55944204E-4
MEAN_MOTION_DOT = .51E-5
MEAN_MOTION_DDOT = 0

CCSDS_OMM_VERS = 2.0
CREATION_DATE  = 
ORIGINATOR     = 

OBJECT_NAME    = AJISAI (EGS)
OBJECT_ID      = 1986-061A
CENTER_NAME    = EARTH
REF_FRAME      = TEME
TIME_SYSTEM    = UTC
MEAN_ELEMENT_THEORY = SGP/SGP4

EPOCH          = 2026-03-12T15:04:29.016768
MEAN_MOTION    = 12.44515649
ECCENTRICITY   = .00112788
INCLINATION    = 50.0081
RA_OF_ASC_NODE = 84.3115
ARG_OF_PERICENTER = 294.6038
MEAN_ANOMALY   = 231.4284

EPHEMERIS_TYPE = 0
CLASSIFICATION_TYPE = U
NORAD_CAT_ID   = 16908
ELEMENT_SET_NO = 999
REV_AT_EPOCH   = 46836
BSTAR          = -.19965767E-4
MEAN_MOTION_DOT = -.1E-5
MEAN_MOTION_DDOT = 0

CCSDS_OMM_VERS = 2.0
CREATION_DATE  = 
ORIGINATOR     = 

OBJECT_NAME    = SL-14 R/B
OBJECT_ID      = 1987-024B
CENTER_NAME    = EARTH
REF_FRAME      = TEME
TIME_SYSTEM    = UTC
MEAN_ELEMENT_THEORY = SGP/SGP4

EPOCH          = 2026-03-12T12:48:49.099968
MEAN_MOTION    = 14.86135162
ECCENTRICITY   = .00167486
INCLINATION    = 82.5245
RA_OF_ASC_NODE = 90.0897
ARG_OF_PERICENTER = 249.6654
MEAN_ANOMALY   = 110.2764

EPHEMERIS_TYPE = 0
CLASSIFICATION_TYPE = U
NORAD_CAT_ID   = 17567
ELEMENT_SET_NO = 999
REV_AT_EPOCH   = 8855
BSTAR          = .61975109E-4
MEAN_MOTION_DOT = .568E-5
MEAN_MOTION_DDOT = 0

CCSDS_OMM_VERS = 2.0
CREATION_DATE  = 
ORIGINATOR     = 

OBJECT_NAME    = COSMOS 1833
OBJECT_ID      = 1987-027A
CENTER_NAME    = EARTH
REF_FRAME      = TEME
TIME_SYSTEM    = UTC
MEAN_ELEMENT_THEORY = SGP/SGP4

EPOCH          = 2026-03-12T14:54:20.720160
MEAN_MOTION    = 14.13054065
ECCENTRICITY   = .00241251
INCLINATION    = 70.9217
RA_OF_ASC_NODE = 319.8585
ARG_OF_PERICENTER = 210.4032
MEAN_ANOMALY   = 149.5692

EPHEMERIS_TYPE = 0
CLASSIFICATION_TYPE = U
NORAD_CAT_ID   = 17589
ELEMENT_SET_NO = 999
REV_AT_EPOCH   = 1073
BSTAR          = -.76945407E-4
MEAN_MOTION_DOT = -.192E-5
MEAN_MOTION_DDOT = 0

CCSDS_OMM_VERS = 2.0
CREATION_DATE  = 
ORIGINATOR     = 

OBJECT_NAME    = SL-16 R/B
OBJECT_ID      = 1987-027B
CENTER_NAME    = EARTH
REF_FRAME      = TEME
TIME_SYSTEM    = UTC
MEAN_ELEMENT_THEORY = SGP/SGP4

EPOCH          = 2026-03-12T14:04:12.015552
MEAN_MOTION    = 14.17166462
ECCENTRICITY   = .00032487
INCLINATION    = 70.9996
RA_OF_ASC_NODE = 270.3909
ARG_OF_PERICENTER = 136.7685
MEAN_ANOMALY   = 223.3695

EPHEMERIS_TYPE = 0
CLASSIFICATION_TYPE = U
NORAD_CAT_ID   = 17590
ELEMENT_SET_NO = 999
REV_AT_EPOCH   = 1575
BSTAR          = .38225556E-4
MEAN_MOTION_DOT = .29E-6
MEAN_MOTION_DDOT = 0

CCSDS_OMM_VERS = 2.0
CREATION_DATE  = 
ORIGINATOR     = 

OBJECT_NAME    = SL-14 R/B
OBJECT_ID      = 1987-038B
CENTER_NAME    = EARTH
REF_FRAME      = TEME
TIME_SYSTEM    = UTC
MEAN_ELEMENT_THEORY = SGP/SGP4

EPOCH          = 2026-03-12T14:20:41.682624
MEAN_MOTION    = 14.85372122
ECCENTRICITY   = .00199098
INCLINATION    = 82.4995
RA_OF_ASC_NODE = 294.0681
ARG_OF_PERICENTER = 151.1432
MEAN_ANOMALY   = 209.0890

EPHEMERIS_TYPE = 0
CLASSIFICATION_TYPE = U
NORAD_CAT_ID   = 17912
ELEMENT_SET_NO = 999
REV_AT_EPOCH   = 7966
BSTAR          = .54626611E-4
MEAN_MOTION_DOT = .496E-5
MEAN_MOTION_DDOT = 0

CCSDS_OMM_VERS = 2.0
CREATION_DATE  = 
ORIGINATOR     = 

OBJECT_NAME    = COSMOS 1844
OBJECT_ID      = 1987-041A
CENTER_NAME    = EARTH
REF_FRAME      = TEME
TIME_SYSTEM    = UTC
MEAN_ELEMENT_THEORY = SGP/SGP4

EPOCH          = 2026-03-12T13:58:41.000736
MEAN_MOTION    = 14.14551704
ECCENTRICITY   = .00301813
INCLINATION    = 70.9001
RA_OF_ASC_NODE = 28.0733
ARG_OF_PERICENTER = 13.5514
MEAN_ANOMALY   = 346.6411

EPHEMERIS_TYPE = 0
CLASSIFICATION_TYPE = U
NORAD_CAT_ID   = 17973
ELEMENT_SET_NO = 999
REV_AT_EPOCH   = 399
BSTAR          = -.35880031E-4
MEAN_MOTION_DOT = -.118E-5
MEAN_MOTION_DDOT = 0

CCSDS_OMM_VERS = 2.0
CREATION_DATE  = 
ORIGINATOR     = 

OBJECT_NAME    = SL-14 R/B
OBJECT_ID      = 1987-055B
CENTER_NAME    = EARTH
REF_FRAME      = TEME
TIME_SYSTEM    = UTC
MEAN_ELEMENT_THEORY = SGP/SGP4

EPOCH          = 2026-03-12T05:41:46.386816
MEAN_MOTION    = 14.85632925
ECCENTRICITY   = .00209506
INCLINATION    = 82.5031
RA_OF_ASC_NODE = 346.6311
ARG_OF_PERICENTER = 9.5666
MEAN_ANOMALY   = 350.5944

EPHEMERIS_TYPE = 0
CLASSIFICATION_TYPE = U
NORAD_CAT_ID   = 18153
ELEMENT_SET_NO = 999
REV_AT_EPOCH   = 7031
BSTAR          = .72356921E-4
MEAN_MOTION_DOT = .653E-5
MEAN_MOTION_DDOT = 0

CCSDS_OMM_VERS = 2.0
CREATION_DATE  = 
ORIGINATOR     = 

OBJECT_NAME    = COSMOS 1867
OBJECT_ID      = 1987-060A
CENTER_NAME    = EARTH
REF_FRAME      = TEME
TIME_SYSTEM    = UTC
MEAN_ELEMENT_THEORY = SGP/SGP4

EPOCH          = 2026-03-12T14:02:27.493152
MEAN_MOTION    = 14.31503582
ECCENTRICITY   = .00145301
INCLINATION    = 65.0108
RA_OF_ASC_NODE = 298.5974
ARG_OF_PERICENTER = 278.8501
MEAN_ANOMALY   = 81.0938

EPHEMERIS_TYPE = 0
CLASSIFICATION_TYPE = U
NORAD_CAT_ID   = 18187
ELEMENT_SET_NO = 999
REV_AT_EPOCH   = 2035
BSTAR          = .28538983E-4
MEAN_MOTION_DOT = -.24E-6
MEAN_MOTION_DDOT = 0

CCSDS_OMM_VERS = 2.0
CREATION_DATE  = 
ORIGINATOR     = 

OBJECT_NAME    = SL-14 R/B
OBJECT_ID      = 1988-001B
CENTER_NAME    = EARTH
REF_FRAME      = TEME
TIME_SYSTEM    = UTC
MEAN_ELEMENT_THEORY = SGP/SGP4

EPOCH          = 2026-03-12T13:40:15.299328
MEAN_MOTION    = 14.85531928
ECCENTRICITY   = .00170087
INCLINATION    = 82.5157
RA_OF_ASC_NODE = 192.6519
ARG_OF_PERICENTER = 225.5611
MEAN_ANOMALY   = 134.4214

EPHEMERIS_TYPE = 0
CLASSIFICATION_TYPE = U
NORAD_CAT_ID   = 18749
ELEMENT_SET_NO = 999
REV_AT_EPOCH   = 4245
BSTAR          = .777796E-4
MEAN_MOTION_DOT = .697E-5
MEAN_MOTION_DDOT = 0

CCSDS_OMM_VERS = 2.0
CREATION_DATE  = 
ORIGINATOR     = 

OBJECT_NAME    = COSMOS 1933
OBJECT_ID      = 1988-020A
CENTER_NAME    = EARTH
REF_FRAME      = TEME
TIME_SYSTEM    = UTC
MEAN_ELEMENT_THEORY = SGP/SGP4

EPOCH          = 2026-03-12T13:24:30.053952
MEAN_MOTION    = 15.18014469
ECCENTRICITY   = .00041558
INCLINATION    = 82.5104
RA_OF_ASC_NODE = 248.0725
ARG_OF_PERICENTER = 172.1951
MEAN_ANOMALY   = 187.9349

EPHEMERIS_TYPE = 0
CLASSIFICATION_TYPE = U
NORAD_CAT_ID   = 18958
ELEMENT_SET_NO = 999
REV_AT_EPOCH   = 5066
BSTAR          = .27542434E-3
MEAN_MOTION_DOT = .5631E-4
MEAN_MOTION_DDOT = 0

