SL-14 R/B               
1 16792U 86046B   26071.50152692  .00000594  00000+0  65606-4 0  9999
2 16792  82.4783  77.5240 0022160 215.6350 144.3388 14.85593566126829
SL-14 R/B               
1 16882U 86055B   26071.58311068  .00000510  00000+0  55944-4 0  9993
2 16882  82.5196 123.9545 0017944 326.6102 194.9724 14.85645592119794
AJISAI (EGS)            
1 16908U 86061A   26071.62811362 -.00000100  00000+0 -19966-4 0  9997
2 16908  50.0081  84.3115 0011278 294.6038 231.4284 12.44515649468365
SL-14 R/B               
1 17567U 87024B   26071.53390162  .00000568  00000+0  61975-4 0  9992
2 17567  82.5245  90.0897 0016748 249.6654 110.2764 14.86135162 88553
COSMOS 1833             
1 17589U 87027A   26071.62107315 -.00000192  00000+0 -76945-4 0  9993
2 17589  70.9217 319.8585 0024125 210.4032 149.5692 14.13054065 10739
SL-16 R/B               
1 17590U 87027B   26071.58625018  .00000029  00000+0  38226-4 0  9992
2 17590  70.9996 270.3909 0003248 136.7685 223.3695 14.17166462 15753
SL-14 R/B               
1 17912U 87038B   26071.59770466  .00000496  00000+0  54627-4 0  9992
2 17912  82.4995 294.0681 0019909 151.1432 209.0890 14.85372122 79665
COSMOS 1844             
1 17973U 87041A   26071.58241899 -.00000118  00000+0 -35880-4 0  9998
2 17973  70.9001  28.0733 0030181  13.5514 346.6411 14.14551704  3999
SL-14 R/B               
1 18153U 87055B   26071.23734244  .00000653  00000+0  72357-4 0  9999
2 18153  82.5031 346.6311 0020950   9.5666 350.5944 14.85632925 70317
COSMOS 1867             
1 18187U 87060A   26071.58504043 -.00000024  00000+0  28539-4 0  9998
2 18187  65.0108 298.5974 0014530 278.8501  81.0938 14.31503582 20356
SL-14 R/B               
1 18749U 88001B   26071.56962152  .00000697  00000+0  77780-4 0  9992
2 18749  82.5157 192.6519 0017008 225.5611 134.4214 14.85531928 42450
COSMOS 1933             
1 18958U 88020A   26071.55868118  .00005631  00000+0  27542-3 0  9994
2 18958  82.5104 248.0725 0004155 172.1951 187.9349 15.18014469 50669
